CUTE-1 (CO-55)          
1 27844U 03031E   26188.97099578  .00000205  00000+0  10756-3 0  9999
2 27844  98.6738 197.2685 0010647 121.3306 238.8916 14.24348325194636
CUBESAT XI-IV (CO-57)   
1 27848U 03031J   26188.47791579  .00000195  00000+0  10456-3 0  9993
2 27848  98.6771 196.4779 0010210 139.6848 220.5090 14.23631593194262
CUBESAT XI-V            
1 28895U 05043F   26188.92203634  .00001095  00000+0  17970-3 0  9999
2 28895  98.3007 344.9821 0014992 136.5809 223.6582 14.72688972104804
CUTE-1.7+APD II (CO-65) 
1 32785U 08021C   26189.19524789  .00002549  00000+0  16252-3 0  9995
2 32785  97.8287 171.0546 0007498 328.2135  31.8640 15.09657730988363
CANX-2                  
1 32790U 08021H   26188.88962067  .00002805  00000+0  19801-3 0  9999
2 32790  97.8650 169.0720 0009545 343.3359  16.7552 15.05772340987921
SEEDS II (CO-66)        
1 32791U 08021J   26188.95639046  .00011298  00000+0  35145-3 0  9991
2 32791  97.7528 187.8563 0002230 173.1591 186.9681 15.33491241990475
SWISSCUBE               
1 35932U 09051B   26189.17253486  .00000734  00000+0  15442-3 0  9991
2 35932  98.4017  97.4251 0007478 138.1087 222.0687 14.62521876892227
BEESAT-1                
1 35933U 09051C   26188.71376992  .00000676  00000+0  14545-3 0  9997
2 35933  98.3945  96.5507 0005671 149.9217 210.2310 14.61753962892188
ITUPSAT1                
1 35935U 09051E   26188.72265193  .00000618  00000+0  13755-3 0  9998
2 35935  98.4027  95.7297 0007547 164.8857 195.2569 14.60471459891734
TISAT 1                 
1 36799U 10035E   26188.82085016  .00014738  00000+0  47140-3 0  9999
2 36799  98.0709 137.2126 0004064 127.9338 232.2269 15.32536162870867
AEROCUBE 4.5A           
1 38767U 12048K   26182.35755624  .04452536  75888-5  12090-2 0  9996
2 38767  64.6119 334.1912 0018036 274.2275  85.6841 16.27240800374938
STRAND-1                
1 39090U 13009E   26188.45511461  .00000234  00000+0  93038-4 0  9991
2 39090  98.3931   8.1913 0008963 162.7350 197.4144 14.37175624699978
BRITE-AUSTRIA           
1 39091U 13009F   26188.96433517  .00000123  00000+0  56246-4 0  9990
2 39091  98.4005   7.8867 0010319 171.4118 188.7247 14.36550405700033
NEE-01 PEGASO           
1 39151U 13018B   26188.89804106  .00001789  00000+0  17440-3 0  9996
2 39151  98.1251 333.7367 0013957  95.9045 264.3765 14.93770042713793
POPACS 2                
1 39269U 13055E   26188.84029553  .00011988 -88119-6  19569-3 0  9998
2 39269  80.9912 120.5462 0415530 127.4879 236.4891 14.91812738666292
POPACS 3                
1 39270U 13055F   26189.00522134  .00008450  00000+0  19990-3 0  9995
2 39270  80.9996 206.6081 0549689   6.6075 354.1985 14.56531541641586
ZACUBE-1 (TSHEPISOSAT)  
1 39417U 13066B   26188.93645073  .00001404  00000+0  11193-3 0  9998
2 39417  97.8020 151.3770 0043545 178.4838 181.6525 15.01306371683840
WNISAT-1                
1 39423U 13066H   26188.93602480  .00000973  00000+0  18457-3 0  9990
2 39423  97.7227 336.6221 0163392 166.0778 194.5009 14.58108160669754
TRITON-1                
1 39427U 13066M   26189.16244466  .00001419  00000+0  17435-3 0  9997
2 39427  97.8222  98.4906 0089971 164.9325 195.4600 14.81779132677195
GOMX-1                  
1 39430U 13066Q   26189.15806150  .00001289  00000+0  19899-3 0  9995
2 39430  97.6475  28.2971 0128944  10.7945 349.5982 14.69531446672998
CUBEBUG-2 (LO-74)       
1 39440U 13066AA  26189.09557076  .00001727  00000+0  16315-3 0  9996
2 39440  97.8911 138.1650 0056210 319.5958  40.1092 14.93938171680113
NEE-02 KRYSAOR          
1 39441U 13066AB  26189.07388785  .00001362  00000+0  15365-3 0  9993
2 39441  97.8887 128.1408 0066060   2.7335 357.4229 14.86718847679303
FUNCUBE-1 (AO-73)       
1 39444U 13066AE  26188.86973417  .00004743  00000+0  29326-3 0  9992
2 39444  97.8284 160.7511 0037639 131.6080 228.8384 15.09754474682784
UWE-3                   
1 39446U 13066AG  26188.86829003  .00001712  00000+0  15023-3 0  9997
2 39446  97.8697 145.0849 0047521 250.1531 109.4565 14.97169904680678
BRITE-CA1 (TORONTO)     
1 40020U 14033L   26188.82868348  .00000770  00000+0  12320-3 0  9993
2 40020  97.9764 317.3791 0077912 209.9563 149.7175 14.72712458645258
DUCHIFAT-1              
1 40021U 14033M   26188.71429161  .00106366  00000+0  89743-3 0  9999
2 40021  98.0443 250.8323 0001383 276.1488  83.9614 15.69460048658969
NANOSATC-BR1            
1 40024U 14033Q   26188.91332792  .00010617  00000+0  34456-3 0  9991
2 40024  98.0718 223.1467 0005282 113.6999 246.4796 15.32158355657155
QB50P1                  
1 40025U 14033R   26188.97431203  .00005094  00000+0  24981-3 0  9990
2 40025  98.0971 201.5818 0009877 146.1171 214.0694 15.18590831656187
QB50P2                  
1 40032U 14033Y   26188.96723345  .00003716  00000+0  20039-3 0  9997
2 40032  98.0762 187.1450 0009332 103.8337 256.3932 15.15442083655819
PERSEUS-M2              
1 40037U 14033AD  26189.13872617  .00001284  00000+0  12116-3 0  9994
2 40037  97.9966 140.1069 0010664 225.3589 134.6762 14.95572057653912
